CCSDS_OMM_VERS,COMMENT,CREATION_DATE,ORIGINATOR,OBJECT_NAME,OBJECT_ID,CENTER_NAME,REF_FRAME,TIME_SYSTEM,MEAN_ELEMENT_THEORY,EPOCH,MEAN_MOTION,ECCENTRICITY,INCLINATION,RA_OF_ASC_NODE,ARG_OF_PERICENTER,MEAN_ANOMALY,EPHEMERIS_TYPE,CLASSIFICATION_TYPE,NORAD_CAT_ID,ELEMENT_SET_NO,REV_AT_EPOCH,BSTAR,MEAN_MOTION_DOT,MEAN_MOTION_DDOT,SEMIMAJOR_AXIS,PERIOD,APOAPSIS,PERIAPSIS,OBJECT_TYPE,RCS_SIZE,COUNTRY_CODE,LAUNCH_DATE,SITE,DECAY_DATE,FILE,GP_ID,TLE_LINE0,TLE_LINE1,TLE_LINE2,NORAD_KEY,JCAT,DeepCat,Satcat,Piece,Active,Type,Name,LDate,Parent,Owner,State,SDate,ExpandedStatus,DDate,ODate,Period,Perigee,PF,Apogee,AF,Inc,IF,OpOrbit,SATCAT_KEY
3.0,GENERATED VIA SPACE-TRACK.ORG API,2026-05-06T14:46:56,18 SPCS,INSAT 1A,1982-031A,EARTH,TEME,UTC,SGP4,2026-05-06T11:31:39.405216,1.00343762,0.001531,7.2275,298.7639,90.0316,111.3307,0,U,13129,999,16601,0.00000000000000,-0.00000331,0.0000000000000,42144.566,1435.067,35830.955,35701.908,PAYLOAD,MEDIUM,IND,1982-04-10,AFETR,,5177243,322299401,0 INSAT 1A,1 13129U 82031A   26126.48031719 -.00000331  00000-0  00000+0 0  9997,2 13129   7.2275 298.7639 0015310  90.0316 111.3307  1.00343762166010,13129,S13129,-,13129,1982-031A,P,P,Insat 1A,1982 Apr 10,S13137,ISRO,IN,1982 Apr 10 0727,In Earth orbit,-,2026 May  4 ,    1435.059 ,   35701, ,   35830, ,  7.23 , ,GEO/ID,13129
3.0,GENERATED VIA SPACE-TRACK.ORG API,2026-05-06T15:06:46,18 SPCS,APSTAR 6,2005-012A,EARTH,TEME,UTC,SGP4,2026-05-06T08:11:38.854752,0.98570607,0.0011112,7.2587,69.7443,305.5076,250.364,0,U,28638,999,10162,0.00000000000000,-0.00000030,0.0000000000000,42648.48,1460.882,36317.736,36222.954,PAYLOAD,LARGE,PRC,2005-04-12,XSC,,5177732,322310897,0 APSTAR 6,1 28638U 05012A   26126.34142193 -.00000030  00000-0  00000+0 0  9992,2 28638   7.2587  69.7443 0011112 305.5076 250.3640  0.98570607101625,28638,S28638,-,28638,2005-012A,P,P,Apstar 6,2005 Apr 12,S28639,APT,HK,2005 Apr 12 1225,In Earth orbit,-,2026 May  5 ,    1460.877 ,   36222, ,   36317, ,  7.26 , ,GEO/ID,28638
3.0,GENERATED VIA SPACE-TRACK.ORG API,2026-05-06T14:56:52,18 SPCS,EUTE 28A (EB 1),2001-011A,EARTH,TEME,UTC,SGP4,2026-05-06T12:02:16.949184,0.98794687,0.0008033,7.2784,67.8266,308.0811,171.7439,0,U,26719,999,9197,0.00000000000000,-0.00000247,0.0000000000000,42583.967,1457.568,36240.04,36171.624,PAYLOAD,LARGE,EUTE,2001-03-08,FRGUI,,5177597,322308393,0 EUTE 28A (EB 1),1 26719U 01011A   26126.50158506 -.00000247  00000-0  00000+0 0  9998,2 26719   7.2784  67.8266 0008033 308.0811 171.7439  0.98794687 91971,26719,S26719,-,26719,2001-011A,P,P,EUTELSAT 133 WEST A,2001 Mar  8,S26722,EUTSA,F,2001 Mar  8 2320,In Earth orbit,-,2026 May  5 ,    1457.562 ,   36171, ,   36240, ,  7.28 , ,GEO/ID,26719
3.0,GENERATED VIA SPACE-TRACK.ORG API,2026-05-06T14:46:56,18 SPCS,GORIZONT 4,1980-049A,EARTH,TEME,UTC,SGP4,2026-05-06T12:59:28.940352,0.98629571,0.0003811,7.2841,295.6617,12.9105,327.7694,0,U,11841,999,23310,0.00000000000000,-0.00000013,0.0000000000000,42631.48,1460.008,36269.592,36237.098,PAYLOAD,LARGE,CIS,1980-06-14,TTMTR,,5177218,322299091,0 GORIZONT 4,1 11841U 80049A   26126.54130718 -.00000013  00000-0  00000+0 0  9996,2 11841   7.2841 295.6617 0003811  12.9105 327.7694  0.98629571233100,11841,S11841,-,11841,1980-049A,P,P,Gorizont,1980 Jun 14,S11862,KS,SU,1980 Jun 14 0727?,In Earth orbit,-,2026 May  5 ,    1460.016 ,   36237, ,   36269, ,  7.29 , ,GEO/ID,11841
3.0,GENERATED VIA SPACE-TRACK.ORG API,2026-05-06T14:56:52,18 SPCS,GALAXY 25 (TELSTAR 5),1997-026A,EARTH,TEME,UTC,SGP4,2026-05-06T08:27:20.531808,0.99088421,0.0005636,7.2902,68.3096,17.5762,359.9341,0,U,24812,999,10581,0.00000000000000,-0.00000043,0.0000000000000,42499.769,1453.247,36145.587,36097.681,PAYLOAD,LARGE,US,1997-05-24,TTMTR,,5177539,322306171,0 GALAXY 25 (TELSTAR 5),1 24812U 97026A   26126.35232097 -.00000043  00000-0  00000+0 0  9996,2 24812   7.2902  68.3096 0005636  17.5762 359.9341  0.99088421105819,24812,S24812,-,24812,1997-026A,P,P,Galaxy 25,1997 May 24,S24815,SESINTU,US,1997 May 24 2341,In Earth orbit,-,2026 May  5 ,    1453.242 ,   36097, ,   36145, ,  7.29 , ,GEO/ID,24812
3.0,GENERATED VIA SPACE-TRACK.ORG API,2026-05-06T14:46:56,18 SPCS,SIRIO,1977-080A,EARTH,TEME,UTC,SGP4,2026-05-06T13:36:13.109760,1.00270574,0.00063,7.316,299.4881,151.833,52.6356,0,U,10294,999,11750,0.00000000000000,-0.00000095,0.0000000000000,42165.071,1436.114,35813.5,35760.372,PAYLOAD,MEDIUM,IT,1977-08-25,AFETR,,5177190,322298742,0 SIRIO,1 10294U 77080A   26126.56681840 -.00000095  00000-0  00000+0 0  9997,2 10294   7.3160 299.4881 0006300 151.8330  52.6356  1.00270574117503,10294,S10294,-,10294,1977-080A,P,P,Sirio 1,1977 Aug 25,S10296,CNR,I,1977 Aug 26 0014,In Earth orbit,-,2026 May  5 ,    1436.114 ,   35760, ,   35813, ,  7.32 , ,GEO/I,10294
3.0,GENERATED VIA SPACE-TRACK.ORG API,2026-05-06T10:08:52,18 SPCS,OPS 7484,1979-053A,EARTH,TEME,UTC,SGP4,2026-05-06T04:41:47.827680,0.98748226,0.000847,7.316,297.2356,304.8145,76.1409,0,U,11397,999,2557,0.00000000000000,-0.00000075,0.0000000000000,42597.323,1458.254,36255.268,36183.108,PAYLOAD,,US,1979-06-10,AFETR,,5176958,322261848,0 OPS 7484,1 11397U 79053A   26126.19569245 -.00000075  00000-0  00000-0 0  9996,2 11397   7.3160 297.2356 0008470 304.8145  76.1409  0.98748226 25570,11397,S11397,-,11397,1979-053A,P,P,DSP F8,1979 Jun 10,S11436,SFSSC,US,1979 Jun 10 2030?,In Earth orbit,-,2026 May  5 ,    1458.260 ,   36183, ,   36255, ,  7.32 , ,GEO/ID,11397
3.0,GENERATED VIA SPACE-TRACK.ORG API,2026-05-06T14:46:56,18 SPCS,INTELSAT 4-F7,1973-058A,EARTH,TEME,UTC,SGP4,2026-05-06T13:34:26.907744,0.99142431,0.0003406,7.3319,297.1969,206.1812,357.5608,0,U,6796,999,13523,0.00000000000000,0.00000063,0.0000000000000,42484.332,1452.456,36120.668,36091.727,PAYLOAD,LARGE,ITSO,1973-08-23,AFETR,,5177141,322297605,0 INTELSAT 4-F7,1  6796U 73058A   26126.56558921  .00000063  00000-0  00000+0 0  9997,2  6796   7.3319 297.1969 0003406 206.1812 357.5608  0.99142431135230,6796,S06796,-,06796,1973-058A,P,P,INTELSAT IV F7,1973 Aug 23,S06797,SESINTU,US,1973 Aug 23 2325,In Earth orbit,-,2026 May  5 ,    1452.456 ,   36091, ,   36120, ,  7.34 , ,GEO/ID,6796
3.0,GENERATED VIA SPACE-TRACK.ORG API,2026-05-06T14:46:56,18 SPCS,WESTAR 2,1974-075A,EARTH,TEME,UTC,SGP4,2026-05-06T12:37:12.214848,0.99846417,0.0002409,7.3521,300.0327,204.0997,166.6845,0,U,7466,999,13724,0.00000000000000,-0.00000046,0.0000000000000,42284.401,1442.215,35916.453,35896.08,PAYLOAD,LARGE,US,1974-10-10,AFETR,,5177153,322297260,0 WESTAR 2,1  7466U 74075A   26126.52583582 -.00000046  00000-0  00000+0 0  9991,2  7466   7.3521 300.0327 0002409 204.0997 166.6845  0.99846417137245,7466,S07466,-,07466,1974-075A,P,P,Westar 2,1974 Oct 10,S07468,WUTC,US,1974 Oct 10 2318,In Earth orbit,-,2026 May  5 ,    1442.214 ,   35896, ,   35916, ,  7.36 , ,GEO/ID,7466
3.0,GENERATED VIA SPACE-TRACK.ORG API,2026-05-06T14:46:56,18 SPCS,GORIZONT 6,1982-103A,EARTH,TEME,UTC,SGP4,2026-05-06T12:42:06.298848,1.00281923,0.0002977,7.4301,302.2124,358.653,302.8238,0,U,13624,999,12052,0.00000000000000,0.00000095,0.0000000000000,42161.89,1435.952,35796.307,35771.204,PAYLOAD,LARGE,CIS,1982-10-20,TTMTR,,5177251,322299494,0 GORIZONT 6,1 13624U 82103A   26126.52923957  .00000095  00000-0  00000+0 0  9992,2 13624   7.4301 302.2124 0002977 358.6530 302.8238  1.00281923120524,13624,S13624,-,13624,1982-103A,P,P,Gorizont,1982 Oct 20,S13630,KS,SU,1982 Oct 20 2303?,In Earth orbit,-,2026 May  5 ,    1435.959 ,   35771, ,   35796, ,  7.43 , ,GEO/I,13624
3.0,GENERATED VIA SPACE-TRACK.ORG API,2026-05-06T02:32:52,18 SPCS,FENGYUN 2F,2012-002A,EARTH,TEME,UTC,SGP4,2026-05-05T18:52:10.063776,0.9913837,0.00015272,7.4672,66.6276,202.886,353.7482,0,U,38049,999,5238,0.00000000000000,-0.00000198,0.0000000000000,42485.493,1452.515,36113.846,36100.869,PAYLOAD,LARGE,PRC,2012-01-13,XSC,,5176277,322223008,0 FENGYUN 2F,1 38049U 12002A   26125.78622759 -.00000198  00000-0  00000-0 0  9990,2 38049   7.4672  66.6276 0001527 202.8860 353.7482  0.99138370 52386,38049,S38049,-,38049,2012-002A,P,P,Feng Yun 2F,2012 Jan 13,S38050,NSMC,CN,2012 Jan 13 0119,In Earth orbit,-,2026 May  5 ,    1452.511 ,   36100, ,   36113, ,  7.47 , ,GEO/ID,38049
3.0,GENERATED VIA SPACE-TRACK.ORG API,2026-05-06T14:46:56,18 SPCS,SAKURA 1A (CS-1A),1977-118A,EARTH,TEME,UTC,SGP4,2026-05-06T12:39:12.168288,0.98912572,0.0002554,7.4754,297.4147,88.3198,281.9611,0,U,10516,999,13518,0.00000000000000,0.00000037,0.0000000000000,42550.125,1455.831,36182.858,36161.123,PAYLOAD,LARGE,JPN,1977-12-15,AFETR,,5177195,322298305,0 SAKURA 1A (CS-1A),1 10516U 77118A   26126.52722417  .00000037  00000-0  00000+0 0  9993,2 10516   7.4754 297.4147 0002554  88.3198 281.9611  0.98912572135188,10516,S10516,-,10516,1977-118A,P,P,Sakura,1977 Dec 15,S11072,JAXA,J,1977 Dec 15 0111,In Earth orbit,-,2026 May  5 ,    1455.831 ,   36161, ,   36182, ,  7.48 , ,GEO/ID,10516
3.0,GENERATED VIA SPACE-TRACK.ORG API,2026-05-06T10:08:52,18 SPCS,ANGOSAT 1,2017-086A,EARTH,TEME,UTC,SGP4,2026-05-06T04:28:11.631936,0.99383421,0.0017889,7.4762,67.7629,177.4131,22.1033,0,U,43087,999,3031,0.00000000000000,-0.00000238,0.0000000000000,42415.626,1448.934,36113.368,35961.614,PAYLOAD,LARGE,AGO,2017-12-26,TTMTR,,5176958,322275224,0 ANGOSAT 1,1 43087U 17086A   26126.18624574 -.00000238  00000-0  00000-0 0  9992,2 43087   7.4762  67.7629 0017889 177.4131  22.1033  0.99383421 30311,43087,S43087,-,43087,2017-086A,P,P,Angosat 1,2017 Dec 26,S43088,GGPEN,AO,2017 Dec 27 0354,In Earth orbit,-,2026 May  4 ,    1448.931 ,   35961, ,   36113, ,  7.47 , ,GEO/ID,43087
